{
  "type": "FeatureCollection",
  "features": [
    {
      "type": "Feature",
      "properties": {
        "norad_id": 30405,
        "name": "FENGYUN 1C DEB",
        "group": "fengyun-1c-debris",
        "lat": 36.265513382425844,
        "lon": -98.05876783598927,
        "alt_km": 759.5818634019288,
        "timestamp": "2025-12-07T11:27:50.278550+00:00",
        "meta_object_name": "FENGYUN 1C DEB",
        "meta_object_id": "1999-025ADU",
        "meta_epoch": "2025-12-06T18:35:43.008576",
        "meta_mean_motion": 14.28837321,
        "meta_eccentricity": 0.00515804,
        "meta_inclination": 98.7949,
        "meta_ra_of_asc_node": 74.7109,
        "meta_arg_of_pericenter": 170.7267,
        "meta_mean_anomaly": 319.3135,
        "meta_ephemeris_type": 0,
        "meta_classification_type": "U",
        "meta_norad_cat_id": 30405,
        "meta_element_set_no": 999,
        "meta_rev_at_epoch": 97310,
        "meta_bstar": 0.0031802131,
        "meta_mean_motion_dot": 8.098e-05,
        "meta_mean_motion_ddot": 0,
        "tle_line1": "1 30405U 99025ADU 25340.77480334  .00008098  00000+0  31802-2 0  9997",
        "tle_line2": "2 30405  98.7949  74.7109 0051580 170.7267 319.3135 14.28837321973101"
      },
      "geometry": {
        "type": "Point",
        "coordinates": [
          -98.05876783598927,
          36.265513382425844
        ]
      }
    },
    {
      "type": "Feature",
      "properties": {
        "norad_id": 30406,
        "name": "FENGYUN 1C DEB",
        "group": "fengyun-1c-debris",
        "lat": -17.70238102158502,
        "lon": -124.45905690431823,
        "alt_km": 862.4044183851902,
        "timestamp": "2025-12-07T11:27:50.278560+00:00",
        "meta_object_name": "FENGYUN 1C DEB",
        "meta_object_id": "1999-025ADV",
        "meta_epoch": "2025-12-06T16:22:20.153280",
        "meta_mean_motion": 13.59176012,
        "meta_eccentricity": 0.02830164,
        "meta_inclination": 98.6203,
        "meta_ra_of_asc_node": 232.065,
        "meta_arg_of_pericenter": 15.4959,
        "meta_mean_anomaly": 38.079,
        "meta_ephemeris_type": 0,
        "meta_classification_type": "U",
        "meta_norad_cat_id": 30406,
        "meta_element_set_no": 999,
        "meta_rev_at_epoch": 93084,
        "meta_bstar": 0.0037093291,
        "meta_mean_motion_dot": 3.517e-05,
        "meta_mean_motion_ddot": 0,
        "tle_line1": "1 30406U 99025ADV 25340.68217770  .00003517  00000+0  37093-2 0  9999",
        "tle_line2": "2 30406  98.6203 232.0650 0283016  15.4959  38.0790 13.59176012930840"
      },
      "geometry": {
        "type": "Point",
        "coordinates": [
          -124.45905690431823,
          -17.70238102158502
        ]
      }
    },
    {
      "type": "Feature",
      "properties": {
        "norad_id": 30409,
        "name": "FENGYUN 1C DEB",
        "group": "fengyun-1c-debris",
        "lat": -37.885163069977104,
        "lon": -24.123169919304324,
        "alt_km": 822.3376086235021,
        "timestamp": "2025-12-07T11:27:50.278570+00:00",
        "meta_object_name": "FENGYUN 1C DEB",
        "meta_object_id": "1999-025ADY",
        "meta_epoch": "2025-12-05T22:17:37.781664",
        "meta_mean_motion": 14.03698532,
        "meta_eccentricity": 0.01682506,
        "meta_inclination": 98.4724,
        "meta_ra_of_asc_node": 327.7729,
        "meta_arg_of_pericenter": 24.7587,
        "meta_mean_anomaly": 36.5994,
        "meta_ephemeris_type": 0,
        "meta_classification_type": "U",
        "meta_norad_cat_id": 30409,
        "meta_element_set_no": 999,
        "meta_rev_at_epoch": 96334,
        "meta_bstar": 0.0013746152,
        "meta_mean_motion_dot": 2.411e-05,
        "meta_mean_motion_ddot": 0,
        "tle_line1": "1 30409U 99025ADY 25339.92890951  .00002411  00000+0  13746-2 0  9996",
        "tle_line2": "2 30409  98.4724 327.7729 0168250  24.7587  36.5994 14.03698532963346"
      },
      "geometry": {
        "type": "Point",
        "coordinates": [
          -24.123169919304324,
          -37.885163069977104
        ]
      }
    },
    {
      "type": "Feature",
      "properties": {
        "norad_id": 30411,
        "name": "FENGYUN 1C DEB",
        "group": "fengyun-1c-debris",
        "lat": 63.60059617081161,
        "lon": 90.06157087463309,
        "alt_km": 773.5209212049913,
        "timestamp": "2025-12-07T11:27:50.278580+00:00",
        "meta_object_name": "FENGYUN 1C DEB",
        "meta_object_id": "1999-025AEA",
        "meta_epoch": "2025-12-06T16:09:30.568608",
        "meta_mean_motion": 14.07600641,
        "meta_eccentricity": 0.0121986,
        "meta_inclination": 98.5823,
        "meta_ra_of_asc_node": 251.5855,
        "meta_arg_of_pericenter": 123.9756,
        "meta_mean_anomaly": 237.3077,
        "meta_ephemeris_type": 0,
        "meta_classification_type": "U",
        "meta_norad_cat_id": 30411,
        "meta_element_set_no": 999,
        "meta_rev_at_epoch": 95898,
        "meta_bstar": 0.0025852851,
        "meta_mean_motion_dot": 4.633e-05,
        "meta_mean_motion_ddot": 0,
        "tle_line1": "1 30411U 99025AEA 25340.67327047  .00004633  00000+0  25853-2 0  9994",
        "tle_line2": "2 30411  98.5823 251.5855 0121986 123.9756 237.3077 14.07600641958984"
      },
      "geometry": {
        "type": "Point",
        "coordinates": [
          90.06157087463309,
          63.60059617081161
        ]
      }
    },
    {
      "type": "Feature",
      "properties": {
        "norad_id": 30413,
        "name": "FENGYUN 1C DEB",
        "group": "fengyun-1c-debris",
        "lat": 35.355106898802354,
        "lon": -156.39242443850932,
        "alt_km": 812.8447642130313,
        "timestamp": "2025-12-07T11:27:50.278590+00:00",
        "meta_object_name": "FENGYUN 1C DEB",
        "meta_object_id": "1999-025AEC",
        "meta_epoch": "2025-12-06T21:57:14.306688",
        "meta_mean_motion": 14.32435918,
        "meta_eccentricity": 0.00458994,
        "meta_inclination": 102.0618,
        "meta_ra_of_asc_node": 211.553,
        "meta_arg_of_pericenter": 232.2266,
        "meta_mean_anomaly": 142.631,
        "meta_ephemeris_type": 0,
        "meta_classification_type": "U",
        "meta_norad_cat_id": 30413,
        "meta_element_set_no": 999,
        "meta_rev_at_epoch": 97056,
        "meta_bstar": 0.0034814846,
        "meta_mean_motion_dot": 9.476e-05,
        "meta_mean_motion_ddot": 0,
        "tle_line1": "1 30413U 99025AEC 25340.91474892  .00009476  00000+0  34815-2 0  9992",
        "tle_line2": "2 30413 102.0618 211.5530 0045899 232.2266 142.6310 14.32435918970560"
      },
      "geometry": {
        "type": "Point",
        "coordinates": [
          -156.39242443850932,
          35.355106898802354
        ]
      }
    },
    {
      "type": "Feature",
      "properties": {
        "norad_id": 30414,
        "name": "FENGYUN 1C DEB",
        "group": "fengyun-1c-debris",
        "lat": 79.74725245642325,
        "lon": 20.618209086924864,
        "alt_km": 784.386959602597,
        "timestamp": "2025-12-07T11:27:50.278601+00:00",
        "meta_object_name": "FENGYUN 1C DEB",
        "meta_object_id": "1999-025AED",
        "meta_epoch": "2025-12-06T21:37:22.912896",
        "meta_mean_motion": 14.34024071,
        "meta_eccentricity": 0.00586779,
        "meta_inclination": 99.0808,
        "meta_ra_of_asc_node": 137.8595,
        "meta_arg_of_pericenter": 205.5598,
        "meta_mean_anomaly": 154.2682,
        "meta_ephemeris_type": 0,
        "meta_classification_type": "U",
        "meta_norad_cat_id": 30414,
        "meta_element_set_no": 999,
        "meta_rev_at_epoch": 97003,
        "meta_bstar": 0.004156514,
        "meta_mean_motion_dot": 0.00011808,
        "meta_mean_motion_ddot": 0,
        "tle_line1": "1 30414U 99025AED 25340.90095964  .00011808  00000+0  41565-2 0  9993",
        "tle_line2": "2 30414  99.0808 137.8595 0058677 205.5598 154.2682 14.34024071970036"
      },
      "geometry": {
        "type": "Point",
        "coordinates": [
          20.618209086924864,
          79.74725245642325
        ]
      }
    },
    {
      "type": "Feature",
      "properties": {
        "norad_id": 30415,
        "name": "FENGYUN 1C DEB",
        "group": "fengyun-1c-debris",
        "lat": -25.93197682947291,
        "lon": 46.46206324883049,
        "alt_km": 895.8941724957867,
        "timestamp": "2025-12-07T11:27:50.278611+00:00",
        "meta_object_name": "FENGYUN 1C DEB",
        "meta_object_id": "1999-025AEE",
        "meta_epoch": "2025-12-06T20:07:18.130656",
        "meta_mean_motion": 13.68912732,
        "meta_eccentricity": 0.02379223,
        "meta_inclination": 99.6457,
        "meta_ra_of_asc_node": 41.0788,
        "meta_arg_of_pericenter": 284.4456,
        "meta_mean_anomaly": 138.5431,
        "meta_ephemeris_type": 0,
        "meta_classification_type": "U",
        "meta_norad_cat_id": 30415,
        "meta_element_set_no": 999,
        "meta_rev_at_epoch": 93797,
        "meta_bstar": 0.0018735761,
        "meta_mean_motion_dot": 1.923e-05,
        "meta_mean_motion_ddot": 0,
        "tle_line1": "1 30415U 99025AEE 25340.83840429  .00001923  00000+0  18736-2 0  9991",
        "tle_line2": "2 30415  99.6457  41.0788 0237922 284.4456 138.5431 13.68912732937973"
      },
      "geometry": {
        "type": "Point",
        "coordinates": [
          46.46206324883049,
          -25.93197682947291
        ]
      }
    }
  ]
}